STARLINK-31756          
1 61517U 24183J   26068.47295911 -.00000007  00000+0  11885-4 0  9992
2 61517  53.1601 143.7994 0001087 100.4447 259.6676 15.30187948 79611
TEVEL2-5                
1 63214U 25052E   26068.96660006  .00021339  00000+0  71765-3 0  9991
2 63214  97.4013 325.3677 0004700  95.3936 264.7842 15.30817434 54919
